CCSDS_OMM_VERS = 2.0
CREATION_DATE  = 
ORIGINATOR     = 

OBJECT_NAME    = STARLINK-36995
OBJECT_ID      = 2026-049B
CENTER_NAME    = EARTH
REF_FRAME      = TEME
TIME_SYSTEM    = UTC
MEAN_ELEMENT_THEORY = SGP/SGP4

EPOCH          = 2026-03-27T14:00:03.000384
MEAN_MOTION    = 15.80876676
ECCENTRICITY   = .00011597
INCLINATION    = 97.2842
RA_OF_ASC_NODE = 106.6987
ARG_OF_PERICENTER = 100.5677
MEAN_ANOMALY   = 281.9027

EPHEMERIS_TYPE = 0
CLASSIFICATION_TYPE = U
NORAD_CAT_ID   = 68143
ELEMENT_SET_NO = 999
REV_AT_EPOCH   = 349
BSTAR          = -.40042532E-3
MEAN_MOTION_DOT = -.76385E-3
MEAN_MOTION_DDOT = 0

CCSDS_OMM_VERS = 2.0
CREATION_DATE  = 
ORIGINATOR     = 

OBJECT_NAME    = STARLINK-37020
OBJECT_ID      = 2026-049C
CENTER_NAME    = EARTH
REF_FRAME      = TEME
TIME_SYSTEM    = UTC
MEAN_ELEMENT_THEORY = SGP/SGP4

EPOCH          = 2026-03-27T14:00:03.000384
MEAN_MOTION    = 15.80884421
ECCENTRICITY   = .00010764
INCLINATION    = 97.2842
RA_OF_ASC_NODE = 106.7030
ARG_OF_PERICENTER = 103.9893
MEAN_ANOMALY   = 287.0273

EPHEMERIS_TYPE = 0
CLASSIFICATION_TYPE = U
NORAD_CAT_ID   = 68144
ELEMENT_SET_NO = 999
REV_AT_EPOCH   = 349
BSTAR          = -.38665196E-3
MEAN_MOTION_DOT = -.7381E-3
MEAN_MOTION_DDOT = 0

CCSDS_OMM_VERS = 2.0
CREATION_DATE  = 
ORIGINATOR     = 

OBJECT_NAME    = STARLINK-36244
OBJECT_ID      = 2026-049D
CENTER_NAME    = EARTH
REF_FRAME      = TEME
TIME_SYSTEM    = UTC
MEAN_ELEMENT_THEORY = SGP/SGP4

EPOCH          = 2026-03-27T14:00:03.000384
MEAN_MOTION    = 15.77532081
ECCENTRICITY   = .00013992
INCLINATION    = 97.2840
RA_OF_ASC_NODE = 106.7029
ARG_OF_PERICENTER = 82.4406
MEAN_ANOMALY   = 312.2638

EPHEMERIS_TYPE = 0
CLASSIFICATION_TYPE = U
NORAD_CAT_ID   = 68145
ELEMENT_SET_NO = 999
REV_AT_EPOCH   = 350
BSTAR          = -.14299059E-1
MEAN_MOTION_DOT = -.2038471E-1
MEAN_MOTION_DDOT = 0

CCSDS_OMM_VERS = 2.0
CREATION_DATE  = 
ORIGINATOR     = 

OBJECT_NAME    = STARLINK-36980
OBJECT_ID      = 2026-049E
CENTER_NAME    = EARTH
REF_FRAME      = TEME
TIME_SYSTEM    = UTC
MEAN_ELEMENT_THEORY = SGP/SGP4

EPOCH          = 2026-03-27T14:00:03.000384
MEAN_MOTION    = 15.80866607
ECCENTRICITY   = .00016671
INCLINATION    = 97.2843
RA_OF_ASC_NODE = 106.7048
ARG_OF_PERICENTER = 109.9492
MEAN_ANOMALY   = 285.3407

EPHEMERIS_TYPE = 0
CLASSIFICATION_TYPE = U
NORAD_CAT_ID   = 68146
ELEMENT_SET_NO = 999
REV_AT_EPOCH   = 349
BSTAR          = -.19623096E-3
MEAN_MOTION_DOT = -.37656E-3
MEAN_MOTION_DDOT = 0

CCSDS_OMM_VERS = 2.0
CREATION_DATE  = 
ORIGINATOR     = 

OBJECT_NAME    = STARLINK-37055
OBJECT_ID      = 2026-049F
CENTER_NAME    = EARTH
REF_FRAME      = TEME
TIME_SYSTEM    = UTC
MEAN_ELEMENT_THEORY = SGP/SGP4

EPOCH          = 2026-03-27T12:00:02.000160
MEAN_MOTION    = 15.80816057
ECCENTRICITY   = .00012595
INCLINATION    = 97.2842
RA_OF_ASC_NODE = 106.6122
ARG_OF_PERICENTER = 107.8021
MEAN_ANOMALY   = 164.9615

EPHEMERIS_TYPE = 0
CLASSIFICATION_TYPE = U
NORAD_CAT_ID   = 68147
ELEMENT_SET_NO = 999
REV_AT_EPOCH   = 348
BSTAR          = .26951042E-3
MEAN_MOTION_DOT = .51789E-3
MEAN_MOTION_DDOT = 0

CCSDS_OMM_VERS = 2.0
CREATION_DATE  = 
ORIGINATOR     = 

OBJECT_NAME    = STARLINK-36981
OBJECT_ID      = 2026-049G
CENTER_NAME    = EARTH
REF_FRAME      = TEME
TIME_SYSTEM    = UTC
MEAN_ELEMENT_THEORY = SGP/SGP4

EPOCH          = 2026-03-27T12:00:02.000160
MEAN_MOTION    = 15.80782695
ECCENTRICITY   = .00014382
INCLINATION    = 97.2844
RA_OF_ASC_NODE = 106.6194
ARG_OF_PERICENTER = 106.5673
MEAN_ANOMALY   = 183.2979

EPHEMERIS_TYPE = 0
CLASSIFICATION_TYPE = U
NORAD_CAT_ID   = 68148
ELEMENT_SET_NO = 999
REV_AT_EPOCH   = 348
BSTAR          = .67456849E-3
MEAN_MOTION_DOT = .130826E-2
MEAN_MOTION_DDOT = 0

CCSDS_OMM_VERS = 2.0
CREATION_DATE  = 
ORIGINATOR     = 

OBJECT_NAME    = STARLINK-36992
OBJECT_ID      = 2026-049H
CENTER_NAME    = EARTH
REF_FRAME      = TEME
TIME_SYSTEM    = UTC
MEAN_ELEMENT_THEORY = SGP/SGP4

EPOCH          = 2026-03-27T12:00:02.000160
MEAN_MOTION    = 15.80798010
ECCENTRICITY   = .00010979
INCLINATION    = 97.2842
RA_OF_ASC_NODE = 106.6205
ARG_OF_PERICENTER = 85.7880
MEAN_ANOMALY   = 208.3646

EPHEMERIS_TYPE = 0
CLASSIFICATION_TYPE = U
NORAD_CAT_ID   = 68149
ELEMENT_SET_NO = 999
REV_AT_EPOCH   = 348
BSTAR          = .28230623E-3
MEAN_MOTION_DOT = .54224E-3
MEAN_MOTION_DDOT = 0

CCSDS_OMM_VERS = 2.0
CREATION_DATE  = 
ORIGINATOR     = 

OBJECT_NAME    = STARLINK-37060
OBJECT_ID      = 2026-049J
CENTER_NAME    = EARTH
REF_FRAME      = TEME
TIME_SYSTEM    = UTC
MEAN_ELEMENT_THEORY = SGP/SGP4

EPOCH          = 2026-03-27T12:00:02.000160
MEAN_MOTION    = 15.80777983
ECCENTRICITY   = .00011379
INCLINATION    = 97.2842
RA_OF_ASC_NODE = 106.6224
ARG_OF_PERICENTER = 111.1721
MEAN_ANOMALY   = 187.2577

EPHEMERIS_TYPE = 0
CLASSIFICATION_TYPE = U
NORAD_CAT_ID   = 68150
ELEMENT_SET_NO = 999
REV_AT_EPOCH   = 348
BSTAR          = .49747027E-3
MEAN_MOTION_DOT = .96034E-3
MEAN_MOTION_DDOT = 0

CCSDS_OMM_VERS = 2.0
CREATION_DATE  = 
ORIGINATOR     = 

OBJECT_NAME    = STARLINK-37073
OBJECT_ID      = 2026-049K
CENTER_NAME    = EARTH
REF_FRAME      = TEME
TIME_SYSTEM    = UTC
MEAN_ELEMENT_THEORY = SGP/SGP4

EPOCH          = 2026-03-27T12:00:02.000160
MEAN_MOTION    = 15.80770813
ECCENTRICITY   = .00012552
INCLINATION    = 97.2841
RA_OF_ASC_NODE = 106.6250
ARG_OF_PERICENTER = 120.6811
MEAN_ANOMALY   = 182.0158

EPHEMERIS_TYPE = 0
CLASSIFICATION_TYPE = U
NORAD_CAT_ID   = 68151
ELEMENT_SET_NO = 999
REV_AT_EPOCH   = 348
BSTAR          = .7775785E-3
MEAN_MOTION_DOT = .151095E-2
MEAN_MOTION_DDOT = 0

CCSDS_OMM_VERS = 2.0
CREATION_DATE  = 
ORIGINATOR     = 

OBJECT_NAME    = STARLINK-37049
OBJECT_ID      = 2026-049L
CENTER_NAME    = EARTH
REF_FRAME      = TEME
TIME_SYSTEM    = UTC
MEAN_ELEMENT_THEORY = SGP/SGP4

EPOCH          = 2026-03-27T12:00:02.000160
MEAN_MOTION    = 15.80777183
ECCENTRICITY   = .00011302
INCLINATION    = 97.2842
RA_OF_ASC_NODE = 106.6267
ARG_OF_PERICENTER = 99.3591
MEAN_ANOMALY   = 207.6043

EPHEMERIS_TYPE = 0
CLASSIFICATION_TYPE = U
NORAD_CAT_ID   = 68152
ELEMENT_SET_NO = 999
REV_AT_EPOCH   = 348
BSTAR          = .75059192E-3
MEAN_MOTION_DOT = .145799E-2
MEAN_MOTION_DDOT = 0

CCSDS_OMM_VERS = 2.0
CREATION_DATE  = 
ORIGINATOR     = 

OBJECT_NAME    = STARLINK-37072
OBJECT_ID      = 2026-049M
CENTER_NAME    = EARTH
REF_FRAME      = TEME
TIME_SYSTEM    = UTC
MEAN_ELEMENT_THEORY = SGP/SGP4

EPOCH          = 2026-03-27T12:00:02.000160
MEAN_MOTION    = 15.80787973
ECCENTRICITY   = .00015027
INCLINATION    = 97.2843
RA_OF_ASC_NODE = 106.6281
ARG_OF_PERICENTER = 110.4692
MEAN_ANOMALY   = 200.7675

EPHEMERIS_TYPE = 0
CLASSIFICATION_TYPE = U
NORAD_CAT_ID   = 68153
ELEMENT_SET_NO = 999
REV_AT_EPOCH   = 348
BSTAR          = .64797276E-3
MEAN_MOTION_DOT = .125618E-2
MEAN_MOTION_DDOT = 0

CCSDS_OMM_VERS = 2.0
CREATION_DATE  = 
ORIGINATOR     = 

OBJECT_NAME    = STARLINK-36241
OBJECT_ID      = 2026-049N
CENTER_NAME    = EARTH
REF_FRAME      = TEME
TIME_SYSTEM    = UTC
MEAN_ELEMENT_THEORY = SGP/SGP4

EPOCH          = 2026-03-27T12:00:02.000160
MEAN_MOTION    = 15.75172759
ECCENTRICITY   = .00013942
INCLINATION    = 97.2837
RA_OF_ASC_NODE = 106.6256
ARG_OF_PERICENTER = 100.2940
MEAN_ANOMALY   = 206.3184

EPHEMERIS_TYPE = 0
CLASSIFICATION_TYPE = U
NORAD_CAT_ID   = 68154
ELEMENT_SET_NO = 999
REV_AT_EPOCH   = 349
BSTAR          = -.4650376E-5
MEAN_MOTION_DOT = -.823E-5
MEAN_MOTION_DDOT = 0

