STARLINK-36995          
1 68143U 26049B   26086.58336806 -.00076385  00000+0 -40043-3 0  9998
2 68143  97.2842 106.6987 0001159 100.5677 281.9027 15.80876676  3494
STARLINK-37020          
1 68144U 26049C   26086.58336806 -.00073810  00000+0 -38665-3 0  9996
2 68144  97.2842 106.7030 0001076 103.9893 287.0273 15.80884421  3497
STARLINK-36244          
1 68145U 26049D   26086.58336806 -.02038471  00000+0 -14299-1 0  9998
2 68145  97.2840 106.7029 0001399  82.4406 312.2638 15.77532081  3509
STARLINK-36980          
1 68146U 26049E   26086.58336806 -.00037656  00000+0 -19623-3 0  9999
2 68146  97.2843 106.7048 0001667 109.9492 285.3407 15.80866607  3492
STARLINK-37055          
1 68147U 26049F   26086.50002315  .00051789  00000+0  26951-3 0  9990
2 68147  97.2842 106.6122 0001259 107.8021 164.9615 15.80816057  3482
STARLINK-36981          
1 68148U 26049G   26086.50002315  .00130826  00000+0  67457-3 0  9997
2 68148  97.2844 106.6194 0001438 106.5673 183.2979 15.80782695  3489
STARLINK-36992          
1 68149U 26049H   26086.50002315  .00054224  00000+0  28231-3 0  9992
2 68149  97.2842 106.6205 0001097  85.7880 208.3646 15.80798010  3488
STARLINK-37060          
1 68150U 26049J   26086.50002315  .00096034  00000+0  49747-3 0  9994
2 68150  97.2842 106.6224 0001137 111.1721 187.2577 15.80777983  3488
STARLINK-37073          
1 68151U 26049K   26086.50002315  .00151095  00000+0  77758-3 0  9997
2 68151  97.2841 106.6250 0001255 120.6811 182.0158 15.80770813  3486
STARLINK-37049          
1 68152U 26049L   26086.50002315  .00145799  00000+0  75059-3 0  9994
2 68152  97.2842 106.6267 0001130  99.3591 207.6043 15.80777183  3489
STARLINK-37072          
1 68153U 26049M   26086.50002315  .00125618  00000+0  64797-3 0  9990
2 68153  97.2843 106.6281 0001502 110.4692 200.7675 15.80787973  3480
STARLINK-36241          
1 68154U 26049N   26086.50002315 -.00000823  00000+0 -46504-5 0  9991
2 68154  97.2837 106.6256 0001394 100.2940 206.3184 15.75172759  3490
